{"fetched_at":"2026-07-21T07:07:11.422Z","source":"https://celestrak.org/NORAD/elements/gp.php?NAME=SENTINEL&FORMAT=JSON","constellation":"sentinel-3","records":[{"OBJECT_NAME":"SENTINEL-3A","OBJECT_ID":"2016-011A","EPOCH":"2026-07-20T22:46:34.661856","CLASSIFICATION_TYPE":"U","MEAN_MOTION":14.26740781,"ECCENTRICITY":0.00013091,"INCLINATION":98.6232,"RA_OF_ASC_NODE":268.8448,"ARG_OF_PERICENTER":88.9679,"MEAN_ANOMALY":271.1651,"EPHEMERIS_TYPE":0,"NORAD_CAT_ID":41335,"ELEMENT_SET_NO":999,"REV_AT_EPOCH":54287,"BSTAR":0.000032106724,"MEAN_MOTION_DOT":3.4e-7,"MEAN_MOTION_DDOT":0},{"OBJECT_NAME":"SENTINEL-3B","OBJECT_ID":"2018-039A","EPOCH":"2026-07-20T18:45:56.832192","CLASSIFICATION_TYPE":"U","MEAN_MOTION":14.26737354,"ECCENTRICITY":0.00012677,"INCLINATION":98.6231,"RA_OF_ASC_NODE":268.8292,"ARG_OF_PERICENTER":118.6255,"MEAN_ANOMALY":241.5053,"EPHEMERIS_TYPE":0,"NORAD_CAT_ID":43437,"ELEMENT_SET_NO":999,"REV_AT_EPOCH":42891,"BSTAR":0.000032817374,"MEAN_MOTION_DOT":3.6e-7,"MEAN_MOTION_DDOT":0}]}
