SENTINEL-3A             
1 41335U 16011A   26201.94901229  .00000034  00000+0  32107-4 0  9995
2 41335  98.6232 268.8448 0001309  88.9679 271.1651 14.26740781542877
SENTINEL-3B             
1 43437U 18039A   26201.78190778  .00000036  00000+0  32817-4 0  9993
2 43437  98.6231 268.8292 0001267 118.6255 241.5053 14.26737354428919
